#cP2018 10  6  0  0  0.00000000     192 ORBIT IGS14 HLM  IGS
## 2021 518400.00000000   900.00000000 58397 0.0000000000000
+   31   G01G02G03G05G06G07G08G09G10G11G12G13G14G15G16G17G18
+        G19G20G21G22G23G24G25G26G27G28G29G30G31G32  0  0  0
+          0  0  0  0  0  0  0  0  0  0  0  0  0  0  0  0  0
+          0  0  0  0  0  0  0  0  0  0  0  0  0  0  0  0  0
+          0  0  0  0  0  0  0  0  0  0  0  0  0  0  0  0  0
++         3  3  3  4  3  3  3  4  3  3  4  3  3  5  3  3  3
++         3  4  3  3  3  4  3  3  3  3  4  3  3  3  0  0  0
++         0  0  0  0  0  0  0  0  0  0  0  0  0  0  0  0  0
++         0  0  0  0  0  0  0  0  0  0  0  0  0  0  0  0  0
++         0  0  0  0  0  0  0  0  0  0  0  0  0  0  0  0  0
%c G  cc GPS ccc cccc cccc cccc cccc ccccc ccccc ccccc ccccc
%c cc cc ccc ccc cccc cccc cccc cccc ccccc ccccc ccccc ccccc
%f  1.2500000  1.025000000  0.00000000000  0.000000000000000
%f  0.0000000  0.000000000  0.00000000000  0.000000000000000
%i    0    0    0    0      0      0      0      0         0
%i    0    0    0    0      0      0      0      0         0
/* ULTRA ORBIT COMBINATION 20220_00 (58398.000) FROM:       
/* cou emu esu gfu siu usu whu                              
/* REFERENCED TO emu CLOCK AND TO WEIGHTED MEAN POLE:       
/* PCV:IGS14_2019 OL/AL:FES2004  NONE     Y  ORB:CMB CLK:CMB
*  2018 10  7 16 30  0.00000000
PG01  11189.720771  13431.695831 -20251.186556    -97.435662 11  9  7 278  P   P
PG02  11693.419803 -14858.841392  19139.988270    -23.334669 10 13  9 247  P   P
PG03  13401.431526  22942.614595  -1258.484181    146.024294 11 10  9 208  P   P
PG05   1585.652080 -19967.368348  17220.059565     -1.197563 13 14 14 249  P   P
PG06  24350.243628  -6695.276047   8289.681912    353.092216  4 12 12 215  P   P
PG07  23897.710480   6718.190155  10301.704533    110.920501    10 12 230  P   P
PG08  -4043.614210  23913.700839 -10590.633238   -117.758932 13  7 11 241  P   P
PG09  12160.545979   9736.641688  21474.130903    502.013852  8 17  6 258  P   P
PG10 -17430.512607  -1437.522861 -19998.785221    176.574469  9 15 10 226  P   P
PG11   5583.761255  15768.027583 -21198.101674   -711.932563 12 11 10 252  P   P
PG12  -8914.281368 -24484.455013  -5807.202129    301.504524 11 11 15 186  P   P
PG13  11942.783500 -23219.741787  -4913.204586    -87.582310 11  9 14 247  P   P
PG14 -18145.008841  16777.901824  -9188.492517    -96.874090 11 12 13 219  P   P
PG15  -1598.303501 -22650.828871 -13682.433205   -343.765353 16 14 17 201  P   P
PG16  -4627.310073  17959.250299  18683.939077      5.394828 11 14 12 248  P   P
PG17  18186.735387  -8702.068172 -16829.414310    -46.978033 10  8 14 271  P   P
PG18    685.032243  15647.824060 -21926.186993     65.657523 14  2  6 216  P   P
PG19  18605.789658 -16639.367119  -9551.306249   -395.742017  8 11 12 200  P   P
PG20 -20791.205234  -9642.681884 -13638.737740    516.947715 12 14 12 212  P   P
PG21 -25283.335549  -3488.668266   8027.619573   -325.073814  7 13 12 229  P   P
PG22   9023.941351  23415.020746  -8521.474866   -540.343377 16 11 13 190  P   P
PG23   6505.347301  17574.695768  18964.816965   -209.229924 13 12  7 184  P   P
PG24  -6544.643836 -14926.937711 -21135.201856    -56.419011 16  9  8 302  P   P
PG25 -17154.466975 -19400.457306   6248.781939   -658.244413 11 12 12 218  P   P
PG26 -11710.335140  10054.740614  21603.340074      2.351136 11 15 11 268  P   P
PG27 -11807.692704  23622.164168   -679.806599    337.063775 12  9 13 235  P   P
PG28  16986.460085   5372.890051 -19057.625154    748.524830  8 14  7 252  P   P
PG29 -10403.348960 -10832.502371  21881.568082    361.680235 18 18  3 235  P   P
PG30  26649.188244   -137.449222   -521.033787     13.554791  1 13 12 226  P   P
PG31 -23492.811425   7504.794221  10438.395482     88.381446 12 11 14 194  P   P
PG32 -18208.224242  10289.871030 -16277.082207   -400.549886  7 13 10 240  P   P
*  2018 10  7 16 45  0.00000000
PG01   8870.714697  13646.733466 -21214.304071    -97.440018 11  8  5 279  P   P
PG02  13703.612460 -14971.506496  17590.278374    -23.344436 10 13 10 248  P   P
PG03  13028.834903  22830.537519  -4090.309185    146.028610 10 10  9 208  P   P
PG05   2937.310922 -18362.700594  18767.815688     -1.197206 13 14 13 247  P   P
PG06  25151.376355  -6545.311317   5560.154166    353.087287    12 12 216  P   P
PG07  22640.954946   6977.773599  12699.938443    110.914431     9 11 228  P   P
PG08  -4697.419393  24791.103659  -7981.080313   -117.760240 13  7 11 237  P   P
PG09  11079.217489  11922.200036  20951.066334    502.011707  7 16 10 256  P   P
PG10 -18589.449697  -3330.580888 -18705.275484    176.571740  9 15 10 227  P   P
PG11   3537.047992  16842.407203 -20817.018372   -711.929645 12 11 11 250  P   P
PG12  -8376.218251 -23881.776434  -8544.708915    301.502069 11 11 15 191  P   P
PG13  12346.544575 -23420.801865  -2077.349169    -87.581497 11 10 14 244  P   P
PG14 -17727.223911  15584.788079 -11698.278525    -96.873860 11 12 13 220  P   P
PG15   -811.073496 -23874.312401 -11412.042654   -343.764315 16 13 17 198  P   P
PG16  -5826.460619  16046.340895  20064.580177      5.393146 10 14 11 248  P   P
PG17  17289.290800  -6804.960563 -18534.557236    -46.973927 10  8 13 270  P   P
PG18  -1699.435359  15898.954760 -21669.748292     65.661437 14  5  7 216  P   P
PG19  18117.334883 -15541.815223 -12072.627798   -395.738794  9 11 12 202  P   P
PG20 -21509.243322 -10894.278694 -11385.527245    516.948247 12 14 12 214  P   P
PG21 -24353.860570  -3867.438878  10582.656658   -325.068272  8 13 12 226  P   P
PG22   8068.397813  22698.989293 -10989.072005   -540.352842 16 11 13 191  P   P
PG23   5481.668814  19355.713730  17432.574975   -209.229162 13 12  8 178  P   P
PG24  -4147.050803 -15237.680468 -21491.430777    -56.419378 16  9  7 300  P   P
PG25 -17306.927426 -19986.717055   3454.220216   -658.249500 10 12 12 217  P   P
PG26 -13148.312066   8037.786011  21633.406390      2.361411 11 15 10 268  P   P
PG27 -11968.496551  23436.123024   2224.596897    337.059991 12  9 14 236  P   P
PG28  17953.259634   7358.318412 -17489.363814    748.526656  8 13  9 251  P   P
PG29  -9156.526965 -12962.628682  21272.553943    361.673514 18 18  9 240  P   P
PG30  26557.611897    158.105283   2285.796621     13.549929  3 13 12 224  P   P
PG31 -24532.077799   7349.947727   7866.989806     88.379025 11 11 14 195  P   P
PG32 -17512.181122   8435.680619 -18018.500392   -400.538884  8 14 10 240  P   P
*  2018 10  7 17  0  0.00000000
PG01   6477.434804  13999.755088 -21819.635631    -97.444379 11  7  5 279  P   P
PG02  15525.159197 -15150.946888  15747.821950    -23.354203 10 13 11 248  P   P
PG03  12458.902102  22487.086526  -6852.073454    146.032923  9 10  9 208  P   P
PG05   4464.626055 -16704.848007  19987.488699     -1.196851 13 14 12 246  P   P
PG06  25647.771512  -6396.210321   2735.112749    353.082355    12 12 217  P   P
PG07  21145.605664   7332.266801  14887.318915    110.908362  3  9 11 227  P   P
PG08  -5190.692004  25418.702907  -5232.669849   -117.761550 14  7 11 231  P   P
PG09  10139.864957  14085.759762  20066.264916    502.009562  7 16 11 255  P   P
PG10 -19744.853493  -5028.624761 -17090.631009    176.569012  9 15 11 228  P   P
PG11   1592.687631  17975.611443 -20095.274397   -711.926728 12 11 11 249  P   P
PG12  -7638.727522 -23061.091582 -11137.644884    301.499612 12 12 15 196  P   P
PG13  12581.302555 -23360.851703    794.262140    -87.580687 11 11 14 242  P   P
PG14 -17247.047451  14124.516719 -14001.725622    -96.873631 10 13 12 220  P   P
PG15   -159.731066 -24879.634761  -8943.355285   -343.763275 16 13 18 195  P   P
PG16  -7202.236621  14088.396258  21091.438975      5.391470 10 14 11 247  P   P
PG17  16420.545204  -4699.547590 -19909.124271    -46.969821 10 10 13 269  P   P
PG18  -4022.535921  16265.097017 -21055.568296     65.665344 14  7  9 217  P   P
PG19  17562.817737 -14180.392123 -14390.560242   -395.735571  9 11 11 203  P   P
PG20 -22103.212677 -11920.962346  -8938.642179    516.948777 12 13 13 216  P   P
PG21 -23177.881154  -4336.644414  12961.118595   -325.062728  9 13 11 225  P   P
PG22   6902.775976  21825.258494 -13265.769901   -540.362310 16 11 13 194  P   P
PG23   4613.760800  21013.019805  15602.355754   -209.228399 14 12  8 171  P   P
PG24  -1745.592297 -15670.085104 -21482.379923    -56.419732 16  9  8 298  P   P
PG25 -17298.740779 -20309.039240    600.870548   -658.254586 10 11 12 216  P   P
PG26 -14675.509722   6111.826005  21291.270019      2.371686 11 15 10 267  P   P
PG27 -12014.916617  22953.709836   5090.045477    337.056206 11 11 14 238  P   P
PG28  18918.133476   9115.231073 -15604.750470    748.528483  9 13 10 249  P   P
PG29  -8070.030139 -15078.062410  20296.690809    361.666789 18 18 13 244  P   P
PG30  26168.337920    483.248357   5053.707509     13.545068  6 13 12 222  P   P
PG31 -25283.585222   7220.991603   5163.630812     88.376606 11 12 14 196  P   P
PG32 -16844.707063   6381.913609 -19447.910411   -400.527882  8 14 10 239  P   P
EOF
